ONEWEB-0020             
1 45133U 20008C   25338.25822838  .00000631  00000+0  17709-2 0  9990
2 45133  87.8819  75.1197 0001402 105.0024 255.1259 13.10374468282815
ONEWEB-0021             
1 45134U 20008D   25338.27316467  .00000540  00000+0  15111-2 0  9993
2 45134  87.8807  75.1468 0001708 104.3080 255.8238 13.10370802283124
ONEWEB-0023             
1 45136U 20008F   25338.28394403  .00000042  00000+0  84596-4 0  9994
2 45136  87.8799  75.1259 0001476 112.8672 247.2612 13.10369285282557
ONEWEB-0024             
1 45137U 20008G   25338.25656661  .00000597  00000+0  16749-2 0  9997
2 45137  87.8830  75.0992 0001613 102.0505 258.0803 13.10375153282717
ONEWEB-0025             
1 45138U 20008H   25338.27399330  .00000544  00000+0  15222-2 0  9994
2 45138  87.8810  75.1006 0001827 113.8068 246.3251 13.10371253283045
ONEWEB-0026             
1 45139U 20008J   25338.29662101  .00000573  00000+0  15799-2 0  9997
2 45139  87.8867  59.8738 0001562  97.6593 262.4713 13.11417846285568
ONEWEB-0028             
1 45140U 20008K   25338.25336707 -.00000343  00000+0 -10047-2 0  9993
2 45140  87.8856  59.8976 0002123 118.8025 241.3317 13.11416694283072
ONEWEB-0032             
1 45141U 20008L   25338.28974950 -.00000252  00000+0 -75881-3 0  9992
2 45141  87.8805  75.1267 0001682 110.2099 249.9210 13.10369961282772
